IRIDIUM 7 [-]           
1 24793U 97020B   23358.66260379  .00000587  00000+0  19932-3 0  9999
2 24793  86.3959  43.3108 0002428  94.0441 266.1033 14.35017974394350
IRIDIUM 5 [-]           
1 24795U 97020D   23358.94785567  .00007134  00000+0  71234-3 0  9991
2 24795  86.3925 330.8418 0123409 263.8628  94.8525 14.85766146405036
IRIDIUM 4 [-]           
1 24796U 97020E   23358.64216290  .00000607  00000+0  20267-3 0  9999
2 24796  86.3956  40.5562 0002191  96.0638 264.0808 14.35926928394872
IRIDIUM 914 [-]         
1 24836U 97030A   23358.65452877  .00000727  00000+0  22590-3 0  9993
2 24836  86.3933  50.7349 0002263 141.3300 218.8062 14.39757277529320
IRIDIUM 16 [-]          
1 24841U 97030F   23358.72081094  .00000739  00000+0  23970-3 0  9992
2 24841  86.4033  72.2413 0003786  67.2260 292.9338 14.37643748389329
IRIDIUM 911 [-]         
1 24842U 97030G   23358.72181100  .00001006  00000+0  27537-3 0  9993
2 24842  86.4458  71.5139 0016522  97.9909 262.3169 14.46206137396935
IRIDIUM 17 [-]          
1 24870U 97034B   23358.78810411  .00000856  00000+0  28377-3 0  9993
2 24870  86.3963 101.8715 0002183  44.0650 316.0721 14.36737103385960
IRIDIUM 920 [-]         
1 24871U 97034C   23358.76340288  .00000817  00000+0  25068-3 0  9993
2 24871  86.3974  82.3628 0013481  68.5093 291.7542 14.40460755388755
